{"fetched_at":"2026-07-14T17:40:51.802Z","source":"https://celestrak.org/NORAD/elements/gp.php?NAME=JILIN&FORMAT=JSON","constellation":"jilin-1-gaofen","records":[{"OBJECT_NAME":"JILIN-1 GAOFEN 03D51","OBJECT_ID":"2022-155B","EPOCH":"2026-07-14T04:05:40.919136","CLASSIFICATION_TYPE":"U","MEAN_MOTION":15.64789865,"ECCENTRICITY":0.0004334,"INCLINATION":97.6253,"RA_OF_ASC_NODE":342.1096,"ARG_OF_PERICENTER":235.6045,"MEAN_ANOMALY":124.4804,"EPHEMERIS_TYPE":0,"NORAD_CAT_ID":54252,"ELEMENT_SET_NO":999,"REV_AT_EPOCH":20396,"BSTAR":0.00039879,"MEAN_MOTION_DOT":0.00038786,"MEAN_MOTION_DDOT":0},{"OBJECT_NAME":"JILIN-1 GAOFEN 03D53","OBJECT_ID":"2022-155C","EPOCH":"2026-07-14T04:57:25.933824","CLASSIFICATION_TYPE":"U","MEAN_MOTION":15.54379902,"ECCENTRICITY":0.0004821,"INCLINATION":97.6244,"RA_OF_ASC_NODE":337.3671,"ARG_OF_PERICENTER":255.5556,"MEAN_ANOMALY":104.5163,"EPHEMERIS_TYPE":0,"NORAD_CAT_ID":54253,"ELEMENT_SET_NO":999,"REV_AT_EPOCH":20368,"BSTAR":0.00034811,"MEAN_MOTION_DOT":0.00022753,"MEAN_MOTION_DDOT":0},{"OBJECT_NAME":"JILIN-1 GAOFEN 03D52","OBJECT_ID":"2022-155E","EPOCH":"2026-07-14T05:18:24.759360","CLASSIFICATION_TYPE":"U","MEAN_MOTION":15.61975972,"ECCENTRICITY":0.0003695,"INCLINATION":97.6228,"RA_OF_ASC_NODE":340.3799,"ARG_OF_PERICENTER":251.0124,"MEAN_ANOMALY":109.0733,"EPHEMERIS_TYPE":0,"NORAD_CAT_ID":54255,"ELEMENT_SET_NO":999,"REV_AT_EPOCH":20392,"BSTAR":0.00037379,"MEAN_MOTION_DOT":0.00032532,"MEAN_MOTION_DDOT":0},{"OBJECT_NAME":"JILIN-1 GAOFEN 03D50","OBJECT_ID":"2022-167J","EPOCH":"2026-07-14T04:27:08.801856","CLASSIFICATION_TYPE":"U","MEAN_MOTION":15.35048716,"ECCENTRICITY":0.0005296,"INCLINATION":97.6846,"RA_OF_ASC_NODE":4.1452,"ARG_OF_PERICENTER":24.8686,"MEAN_ANOMALY":335.281,"EPHEMERIS_TYPE":0,"NORAD_CAT_ID":54690,"ELEMENT_SET_NO":999,"REV_AT_EPOCH":19949,"BSTAR":0.00019359,"MEAN_MOTION_DOT":0.00006499,"MEAN_MOTION_DDOT":0},{"OBJECT_NAME":"JILIN-1 GAOFEN 03D47","OBJECT_ID":"2022-167L","EPOCH":"2026-07-14T04:32:04.611264","CLASSIFICATION_TYPE":"U","MEAN_MOTION":15.34332035,"ECCENTRICITY":0.0007862,"INCLINATION":97.6943,"RA_OF_ASC_NODE":5.8865,"ARG_OF_PERICENTER":32.8187,"MEAN_ANOMALY":327.3542,"EPHEMERIS_TYPE":0,"NORAD_CAT_ID":54692,"ELEMENT_SET_NO":999,"REV_AT_EPOCH":19948,"BSTAR":0.00019999,"MEAN_MOTION_DOT":0.00006568,"MEAN_MOTION_DDOT":0},{"OBJECT_NAME":"JILIN-1 GAOFEN 03D49","OBJECT_ID":"2022-167N","EPOCH":"2026-07-14T04:58:04.076832","CLASSIFICATION_TYPE":"U","MEAN_MOTION":15.3802735,"ECCENTRICITY":0.000612,"INCLINATION":97.6819,"RA_OF_ASC_NODE":6.5581,"ARG_OF_PERICENTER":52.3394,"MEAN_ANOMALY":307.8405,"EPHEMERIS_TYPE":0,"NORAD_CAT_ID":54694,"ELEMENT_SET_NO":999,"REV_AT_EPOCH":19964,"BSTAR":0.00020506,"MEAN_MOTION_DOT":0.00007588,"MEAN_MOTION_DDOT":0},{"OBJECT_NAME":"JILIN-1 GAOFEN 03D48","OBJECT_ID":"2022-167P","EPOCH":"2026-07-14T04:17:05.866368","CLASSIFICATION_TYPE":"U","MEAN_MOTION":15.3577997,"ECCENTRICITY":0.0006552,"INCLINATION":97.6892,"RA_OF_ASC_NODE":5.8568,"ARG_OF_PERICENTER":33.6018,"MEAN_ANOMALY":326.564,"EPHEMERIS_TYPE":0,"NORAD_CAT_ID":54695,"ELEMENT_SET_NO":999,"REV_AT_EPOCH":19953,"BSTAR":0.00020774,"MEAN_MOTION_DOT":0.00007148,"MEAN_MOTION_DDOT":0},{"OBJECT_NAME":"JILIN GAOFEN OBJECT A","OBJECT_ID":"2026-080A","EPOCH":"2026-07-13T00:17:31.958880","CLASSIFICATION_TYPE":"U","MEAN_MOTION":15.09189243,"ECCENTRICITY":0.00113812,"INCLINATION":97.6615,"RA_OF_ASC_NODE":269.4933,"ARG_OF_PERICENTER":343.1565,"MEAN_ANOMALY":16.9284,"EPHEMERIS_TYPE":0,"NORAD_CAT_ID":68691,"ELEMENT_SET_NO":999,"REV_AT_EPOCH":1355,"BSTAR":0.0002123377,"MEAN_MOTION_DOT":0.00003313,"MEAN_MOTION_DDOT":0},{"OBJECT_NAME":"JILIN GAOFEN OBJECT B","OBJECT_ID":"2026-080B","EPOCH":"2026-07-14T04:30:03.613248","CLASSIFICATION_TYPE":"U","MEAN_MOTION":15.09099742,"ECCENTRICITY":0.0014892,"INCLINATION":97.6592,"RA_OF_ASC_NODE":270.6821,"ARG_OF_PERICENTER":316.8887,"MEAN_ANOMALY":43.1174,"EPHEMERIS_TYPE":0,"NORAD_CAT_ID":68692,"ELEMENT_SET_NO":999,"REV_AT_EPOCH":1373,"BSTAR":0.0001466,"MEAN_MOTION_DOT":0.00002264,"MEAN_MOTION_DDOT":0},{"OBJECT_NAME":"JILIN GAOFEN OBJECT C","OBJECT_ID":"2026-080C","EPOCH":"2026-07-13T00:15:39.218976","CLASSIFICATION_TYPE":"U","MEAN_MOTION":15.09172584,"ECCENTRICITY":0.00122108,"INCLINATION":97.6598,"RA_OF_ASC_NODE":269.4765,"ARG_OF_PERICENTER":323.0944,"MEAN_ANOMALY":36.9443,"EPHEMERIS_TYPE":0,"NORAD_CAT_ID":68693,"ELEMENT_SET_NO":999,"REV_AT_EPOCH":1355,"BSTAR":0.00021711177,"MEAN_MOTION_DOT":0.00003389,"MEAN_MOTION_DDOT":0},{"OBJECT_NAME":"JILIN GAOFEN OBJECT D","OBJECT_ID":"2026-080D","EPOCH":"2026-07-14T04:31:08.762304","CLASSIFICATION_TYPE":"U","MEAN_MOTION":15.0895557,"ECCENTRICITY":0.0016512,"INCLINATION":97.6656,"RA_OF_ASC_NODE":270.7559,"ARG_OF_PERICENTER":329.218,"MEAN_ANOMALY":30.8079,"EPHEMERIS_TYPE":0,"NORAD_CAT_ID":68694,"ELEMENT_SET_NO":999,"REV_AT_EPOCH":1371,"BSTAR":0.00014791,"MEAN_MOTION_DOT":0.00002277,"MEAN_MOTION_DDOT":0},{"OBJECT_NAME":"JILIN GAOFEN OBJECT E","OBJECT_ID":"2026-080E","EPOCH":"2026-07-14T04:05:00.762144","CLASSIFICATION_TYPE":"U","MEAN_MOTION":15.09247694,"ECCENTRICITY":0.0012552,"INCLINATION":97.6636,"RA_OF_ASC_NODE":270.758,"ARG_OF_PERICENTER":340.7089,"MEAN_ANOMALY":19.3663,"EPHEMERIS_TYPE":0,"NORAD_CAT_ID":68695,"ELEMENT_SET_NO":999,"REV_AT_EPOCH":1369,"BSTAR":0.00018725,"MEAN_MOTION_DOT":0.0000292,"MEAN_MOTION_DDOT":0},{"OBJECT_NAME":"JILIN GAOFEN OBJECT F","OBJECT_ID":"2026-080F","EPOCH":"2026-07-14T04:03:33.892992","CLASSIFICATION_TYPE":"U","MEAN_MOTION":15.09212412,"ECCENTRICITY":0.0013642,"INCLINATION":97.6607,"RA_OF_ASC_NODE":270.7258,"ARG_OF_PERICENTER":346.6342,"MEAN_ANOMALY":13.4523,"EPHEMERIS_TYPE":0,"NORAD_CAT_ID":68696,"ELEMENT_SET_NO":999,"REV_AT_EPOCH":1369,"BSTAR":0.0001871,"MEAN_MOTION_DOT":0.00002915,"MEAN_MOTION_DDOT":0},{"OBJECT_NAME":"JILIN GAOFEN OBJECT G","OBJECT_ID":"2026-080G","EPOCH":"2026-07-14T03:43:33.424608","CLASSIFICATION_TYPE":"U","MEAN_MOTION":15.09198806,"ECCENTRICITY":0.0013504,"INCLINATION":97.6655,"RA_OF_ASC_NODE":270.7956,"ARG_OF_PERICENTER":339.766,"MEAN_ANOMALY":20.3032,"EPHEMERIS_TYPE":0,"NORAD_CAT_ID":68697,"ELEMENT_SET_NO":999,"REV_AT_EPOCH":1369,"BSTAR":0.00021331,"MEAN_MOTION_DOT":0.00003332,"MEAN_MOTION_DDOT":0},{"OBJECT_NAME":"JILIN GAOFEN OBJECT H","OBJECT_ID":"2026-080H","EPOCH":"2026-07-13T19:43:09.162912","CLASSIFICATION_TYPE":"U","MEAN_MOTION":15.09126923,"ECCENTRICITY":0.0014264,"INCLINATION":97.6642,"RA_OF_ASC_NODE":270.4535,"ARG_OF_PERICENTER":342.447,"MEAN_ANOMALY":17.6264,"EPHEMERIS_TYPE":0,"NORAD_CAT_ID":68698,"ELEMENT_SET_NO":999,"REV_AT_EPOCH":1364,"BSTAR":0.00020933,"MEAN_MOTION_DOT":0.00003263,"MEAN_MOTION_DDOT":0}]}
