JILIN-1 GAOFEN 03D51    
1 54252U 22155B   26195.17061249  .00038786  00000+0  39879-3 0  9996
2 54252  97.6253 342.1096 0004334 235.6045 124.4804 15.64789865203968
JILIN-1 GAOFEN 03D53    
1 54253U 22155C   26195.20655016  .00022753  00000+0  34811-3 0  9990
2 54253  97.6244 337.3671 0004821 255.5556 104.5163 15.54379902203685
JILIN-1 GAOFEN 03D52    
1 54255U 22155E   26195.22111990  .00032532  00000+0  37379-3 0  9990
2 54255  97.6228 340.3799 0003695 251.0124 109.0733 15.61975972203921
JILIN-1 GAOFEN 03D50    
1 54690U 22167J   26195.18551854  .00006499  00000+0  19359-3 0  9999
2 54690  97.6846   4.1452 0005296  24.8686 335.2810 15.35048716199492
JILIN-1 GAOFEN 03D47    
1 54692U 22167L   26195.18894226  .00006568  00000+0  19999-3 0  9991
2 54692  97.6943   5.8865 0007862  32.8187 327.3542 15.34332035199486
JILIN-1 GAOFEN 03D49    
1 54694U 22167N   26195.20699163  .00007588  00000+0  20506-3 0  9998
2 54694  97.6819   6.5581 0006120  52.3394 307.8405 15.38027350199640
JILIN-1 GAOFEN 03D48    
1 54695U 22167P   26195.17854012  .00007148  00000+0  20774-3 0  9990
2 54695  97.6892   5.8568 0006552  33.6018 326.5640 15.35779970199539
JILIN GAOFEN OBJECT A   
1 68691U 26080A   26194.01217545  .00003313  00000+0  21234-3 0  9997
2 68691  97.6615 269.4933 0011381 343.1565  16.9284 15.09189243 13559
JILIN GAOFEN OBJECT B   
1 68692U 26080B   26195.18754182  .00002264  00000+0  14660-3 0  9999
2 68692  97.6592 270.6821 0014892 316.8887  43.1174 15.09099742 13732
JILIN GAOFEN OBJECT C   
1 68693U 26080C   26194.01087059  .00003389  00000+0  21711-3 0  9997
2 68693  97.6598 269.4765 0012210 323.0944  36.9443 15.09172584 13553
JILIN GAOFEN OBJECT D   
1 68694U 26080D   26195.18829586  .00002277  00000+0  14791-3 0  9991
2 68694  97.6656 270.7559 0016512 329.2180  30.8079 15.08955570 13713
JILIN GAOFEN OBJECT E   
1 68695U 26080E   26195.17014771  .00002920  00000+0  18725-3 0  9999
2 68695  97.6636 270.7580 0012552 340.7089  19.3663 15.09247694 13692
JILIN GAOFEN OBJECT F   
1 68696U 26080F   26195.16914228  .00002915  00000+0  18710-3 0  9993
2 68696  97.6607 270.7258 0013642 346.6342  13.4523 15.09212412 13691
JILIN GAOFEN OBJECT G   
1 68697U 26080G   26195.15524797  .00003332  00000+0  21331-3 0  9998
2 68697  97.6655 270.7956 0013504 339.7660  20.3032 15.09198806 13695
JILIN GAOFEN OBJECT H   
1 68698U 26080H   26194.82163383  .00003263  00000+0  20933-3 0  9992
2 68698  97.6642 270.4535 0014264 342.4470  17.6264 15.09126923 13648
